STARLINK-37799          
1 69317U 26119X   26166.10434227  .00132037  00000+0  67943-3 0  9996
2 69317  97.2819 191.8632 0001069  57.0973 303.0398 15.80824343  2467
STARLINK-37802          
1 69318U 26119Y   26166.03902182  .00157634  00000+0  80751-3 0  9991
2 69318  97.2819 191.7993 0001521  31.7373 328.3987 15.80853956  3707
STARLINK-37803          
1 69319U 26119Z   26166.25002315 -.02161462  00000+0 -22957-1 0  9995
2 69319  97.2839 191.9957 0002250  98.4865 319.1359 15.67447400  3684
GUOWANG TEST OBJECT A   
1 69320U 26120A   26158.46264223  .00009002  00000+0  24096-3 0  9996
2 69320  54.9967  71.5399 0009599 294.3963  65.6063 15.38803685  1198
GUOWANG TEST OBJECT B   
1 69321U 26120B   26165.93000448  .00009712  00000+0  26028-3 0  9999
2 69321  54.9982  37.8967 0009837 323.9642  36.0722 15.38665463  2342
GUOWANG TEST OBJECT C   
1 69322U 26120C   26158.91389784  .00016153  00000+0  41736-3 0  9993
2 69322  54.9968  69.4792 0009850 309.3319  50.6835 15.39284097  1266
GUOWANG TEST OBJECT D   
1 69323U 26120D   26165.92632308  .00004686  00000+0  12953-3 0  9993
2 69323  54.9977  37.8718 0011155 337.9003  22.1543 15.38988640  2346
QIANFAN-163             
1 69325U 26121A   26158.95635699  .00000032  00000+0  25988-4 0  9991
2 69325  89.0167 301.4498 0019200 214.2671 145.7248 13.60351284   905
QIANFAN-164             
1 69326U 26121B   26162.41240743  .00000112  00000+0  13228-3 0  9992
2 69326  89.0157 301.0998 0019383 205.3125 154.7084 13.60355109  1373
SZ-22 MODULE            
1 69328U 25272C   26166.19144066  .00017688  00000+0  21490-3 0  9996
2 69328  41.4806 334.2405 0006400  69.8006 290.3520 15.60144499  3011
STARLINK-37733          
1 69329U 26122A   26166.25002315 -.00142388  00000+0 -75256-3 0  9996
2 69329  97.2835 195.5778 0000406  83.0776 194.9966 15.80882753  3046
STARLINK-37772          
1 69330U 26122B   26166.25002315 -.00125003  00000+0 -65968-3 0  9992
2 69330  97.2836 195.5912 0001197 100.5754 207.3517 15.80867628  2996
STARLINK-37768          
1 69331U 26122C   26166.25002315 -.00146650  00000+0 -77537-3 0  9999
2 69331  97.2837 195.5949 0000943 117.3647 199.9958 15.80884950  2995
STARLINK-37833          
1 69332U 26122D   26166.25002315 -.00140292  00000+0 -74136-3 0  9998
2 69332  97.2834 195.5966 0000951 102.3797 217.7680 15.80879779  2995
STARLINK-37818          
1 69333U 26122E   26166.25002315 -.00135529  00000+0 -71590-3 0  9997
2 69333  97.2831 195.5917 0001023  92.8022 216.3185 15.80875758  3049
STARLINK-37868          
1 69334U 26122F   26166.25002315 -.00100576  00000+0 -52923-3 0  9991
2 69334  97.2843 195.6107 0000787  93.3572 257.9792 15.80865313  3048
STARLINK-37877          
1 69335U 26122G   26166.25002315 -.00603158  00000+0 -33379-2 0  9999
2 69335  97.2842 195.6093 0000759  75.5100 276.5042 15.81034024  3043
STARLINK-37791          
1 69336U 26122H   26166.25002315 -.00171286  00000+0 -90761-3 0  9991
2 69336  97.2828 195.6136 0000544  23.4237 337.4413 15.80902282  3049
STARLINK-37765          
1 69337U 26122J   26166.25002315 -.00103090  00000+0 -54282-3 0  9998
2 69337  97.2835 195.6149 0000696 105.4221 257.6050 15.80858055  3097
STARLINK-37788          
1 69338U 26122K   26166.25002315 -.01269464  00000+0 -73466-2 0  9992
2 69338  97.2835 195.6163 0001225  73.8261 293.0868 15.81263956  3042
STARLINK-37743          
1 69339U 26122L   26166.25002315  .00012726  00000+0  67075-4 0  9998
2 69339  97.2835 195.6115 0000934 109.3385 244.3298 15.80819041  3045
STARLINK-37780          
1 69340U 26122M   26166.25002315 -.00101432  00000+0 -53393-3 0  9992
2 69340  97.2837 195.6135 0001103 101.1988 258.0177 15.80858942  3095
STARLINK-37781          
1 69341U 26122N   26166.25002315 -.01035109  00000+0 -59801-2 0  9990
2 69341  97.2832 195.6079 0000909  86.7582 261.2689 15.81188948  3041
STARLINK-37782          
1 69342U 26122P   26166.25002315 -.00117631  00000+0 -62056-3 0  9998
2 69342  97.2833 195.6330 0000772  57.6619 347.7535 15.80856323  3047
STARLINK-37776          
1 69343U 26122Q   26166.25002315 -.00124272  00000+0 -65567-3 0  9998
2 69343  97.2830 195.6358 0001262  73.3003 337.5940 15.80870325  3047
STARLINK-37786          
1 69344U 26122R   26166.25002315 -.00095593  00000+0 -50290-3 0  9999
2 69344  97.2834 195.6419 0000659  54.2544   9.8650 15.80856326  3049
STARLINK-37785          
1 69345U 26122S   26166.25002315 -.00615064  00000+0 -33795-2 0  9991
2 69345  97.2830 195.6429 0001087  78.4215 348.4240 15.81216239  3047
STARLINK-37773          
1 69346U 26122T   26166.25002315 -.00134437  00000+0 -70992-3 0  9993
2 69346  97.2835 195.6400 0001432  86.2560 334.0490 15.80878025  3095
STARLINK-37744          
1 69347U 26122U   26166.25002315 -.02542376  00000+0 -15979-1 0  9993
2 69347  97.2838 195.6433 0001547  69.4407 359.2429 15.80167222  3041
