OBJECT_NAME,OBJECT_ID,EPOCH,MEAN_MOTION,ECCENTRICITY,INCLINATION,RA_OF_ASC_NODE,ARG_OF_PERICENTER,MEAN_ANOMALY,EPHEMERIS_TYPE,CLASSIFICATION_TYPE,NORAD_CAT_ID,ELEMENT_SET_NO,REV_AT_EPOCH,BSTAR,MEAN_MOTION_DOT,MEAN_MOTION_DDOT
STARLINK-37799,2026-119X,2026-06-15T02:30:15.172128,15.80824343,.00010696,97.2819,191.8632,57.0973,303.0398,0,U,69317,999,246,.67943037E-3,.132037E-2,0
STARLINK-37802,2026-119Y,2026-06-15T00:56:11.485248,15.80853956,.00015212,97.2819,191.7993,31.7373,328.3987,0,U,69318,999,370,.80750847E-3,.157634E-2,0
STARLINK-37803,2026-119Z,2026-06-15T06:00:02.000160,15.67447400,.00022503,97.2839,191.9957,98.4865,319.1359,0,U,69319,999,368,-.22956566E-1,-.2161462E-1,0
GUOWANG TEST OBJECT A,2026-120A,2026-06-07T11:06:12.288672,15.38803685,.00095994,54.9967,71.5399,294.3963,65.6063,0,U,69320,999,119,.24095813E-3,.9002E-4,0
GUOWANG TEST OBJECT B,2026-120B,2026-06-14T22:19:12.387072,15.38665463,.0009837,54.9982,37.8967,323.9642,36.0722,0,U,69321,999,234,.26028E-3,.9712E-4,0
GUOWANG TEST OBJECT C,2026-120C,2026-06-07T21:56:00.773376,15.39284097,.00098504,54.9968,69.4792,309.3319,50.6835,0,U,69322,999,126,.41735581E-3,.16153E-3,0
GUOWANG TEST OBJECT D,2026-120D,2026-06-14T22:13:54.314112,15.38988640,.0011155,54.9977,37.8718,337.9003,22.1543,0,U,69323,999,234,.12953E-3,.4686E-4,0
QIANFAN-163,2026-121A,2026-06-07T22:57:09.243936,13.60351284,.00192,89.0167,301.4498,214.2671,145.7248,0,U,69325,999,90,.25988E-4,.32E-6,0
QIANFAN-164,2026-121B,2026-06-11T09:53:52.001952,13.60355109,.0019383,89.0157,301.0998,205.3125,154.7084,0,U,69326,999,137,.13228E-3,.112E-5,0
SZ-22 MODULE,2025-272C,2026-06-15T04:35:40.473024,15.60144499,.00064006,41.4806,334.2405,69.8006,290.3520,0,U,69328,999,301,.21490186E-3,.17688E-3,0
STARLINK-37733,2026-122A,2026-06-15T06:00:02.000160,15.80882753,.00004063,97.2835,195.5778,83.0776,194.9966,0,U,69329,999,304,-.75256247E-3,-.142388E-2,0
STARLINK-37772,2026-122B,2026-06-15T06:00:02.000160,15.80867628,.00011976,97.2836,195.5912,100.5754,207.3517,0,U,69330,999,299,-.65967972E-3,-.125003E-2,0
STARLINK-37768,2026-122C,2026-06-15T06:00:02.000160,15.80884950,.00009437,97.2837,195.5949,117.3647,199.9958,0,U,69331,999,299,-.77536588E-3,-.14665E-2,0
STARLINK-37833,2026-122D,2026-06-15T06:00:02.000160,15.80879779,.00009515,97.2834,195.5966,102.3797,217.7680,0,U,69332,999,299,-.74135652E-3,-.140292E-2,0
STARLINK-37818,2026-122E,2026-06-15T06:00:02.000160,15.80875758,.00010238,97.2831,195.5917,92.8022,216.3185,0,U,69333,999,304,-.71589775E-3,-.135529E-2,0
STARLINK-37868,2026-122F,2026-06-15T06:00:02.000160,15.80865313,.00007871,97.2843,195.6107,93.3572,257.9792,0,U,69334,999,304,-.52923018E-3,-.100576E-2,0
STARLINK-37877,2026-122G,2026-06-15T06:00:02.000160,15.81034024,.00007598,97.2842,195.6093,75.5100,276.5042,0,U,69335,999,304,-.33378567E-2,-.603158E-2,0
STARLINK-37791,2026-122H,2026-06-15T06:00:02.000160,15.80902282,.00005449,97.2828,195.6136,23.4237,337.4413,0,U,69336,999,304,-.90761272E-3,-.171286E-2,0
STARLINK-37765,2026-122J,2026-06-15T06:00:02.000160,15.80858055,.0000696,97.2835,195.6149,105.4221,257.6050,0,U,69337,999,309,-.54281697E-3,-.10309E-2,0
STARLINK-37788,2026-122K,2026-06-15T06:00:02.000160,15.81263956,.00012259,97.2835,195.6163,73.8261,293.0868,0,U,69338,999,304,-.73466216E-2,-.1269464E-1,0
STARLINK-37743,2026-122L,2026-06-15T06:00:02.000160,15.80819041,.00009348,97.2835,195.6115,109.3385,244.3298,0,U,69339,999,304,.67075118E-4,.12726E-3,0
STARLINK-37780,2026-122M,2026-06-15T06:00:02.000160,15.80858942,.00011032,97.2837,195.6135,101.1988,258.0177,0,U,69340,999,309,-.53392979E-3,-.101432E-2,0
STARLINK-37781,2026-122N,2026-06-15T06:00:02.000160,15.81188948,.00009098,97.2832,195.6079,86.7582,261.2689,0,U,69341,999,304,-.59801443E-2,-.1035109E-1,0
STARLINK-37782,2026-122P,2026-06-15T06:00:02.000160,15.80856323,.00007728,97.2833,195.6330,57.6619,347.7535,0,U,69342,999,304,-.62056044E-3,-.117631E-2,0
STARLINK-37776,2026-122Q,2026-06-15T06:00:02.000160,15.80870325,.0001262,97.2830,195.6358,73.3003,337.5940,0,U,69343,999,304,-.65567425E-3,-.124272E-2,0
STARLINK-37786,2026-122R,2026-06-15T06:00:02.000160,15.80856326,.00006597,97.2834,195.6419,54.2544,9.8650,0,U,69344,999,304,-.50290051E-3,-.95593E-3,0
STARLINK-37785,2026-122S,2026-06-15T06:00:02.000160,15.81216239,.00010877,97.2830,195.6429,78.4215,348.4240,0,U,69345,999,304,-.33795109E-2,-.615064E-2,0
STARLINK-37773,2026-122T,2026-06-15T06:00:02.000160,15.80878025,.00014327,97.2835,195.6400,86.2560,334.0490,0,U,69346,999,309,-.70992261E-3,-.134437E-2,0
STARLINK-37744,2026-122U,2026-06-15T06:00:02.000160,15.80167222,.0001547,97.2838,195.6433,69.4407,359.2429,0,U,69347,999,304,-.15979466E-1,-.2542376E-1,0
